CCSDS_OMM_VERS = 2.0
CREATION_DATE  = 
ORIGINATOR     = 

OBJECT_NAME    = SL-3 R/B
OBJECT_ID      = 1982-079B
CENTER_NAME    = EARTH
REF_FRAME      = TEME
TIME_SYSTEM    = UTC
MEAN_ELEMENT_THEORY = SGP/SGP4

EPOCH          = 2026-03-11T07:22:43.216032
MEAN_MOTION    = 15.24828669
ECCENTRICITY   = .00251011
INCLINATION    = 81.1478
RA_OF_ASC_NODE = 191.1672
ARG_OF_PERICENTER = 159.3912
MEAN_ANOMALY   = 200.8340

EPHEMERIS_TYPE = 0
CLASSIFICATION_TYPE = U
NORAD_CAT_ID   = 13403
ELEMENT_SET_NO = 999
REV_AT_EPOCH   = 37794
BSTAR          = .30953361E-3
MEAN_MOTION_DOT = .7779E-4
MEAN_MOTION_DDOT = 0

CCSDS_OMM_VERS = 2.0
CREATION_DATE  = 
ORIGINATOR     = 

OBJECT_NAME    = SL-14 R/B
OBJECT_ID      = 1982-092B
CENTER_NAME    = EARTH
REF_FRAME      = TEME
TIME_SYSTEM    = UTC
MEAN_ELEMENT_THEORY = SGP/SGP4

EPOCH          = 2026-03-11T06:14:37.747104
MEAN_MOTION    = 14.86668036
ECCENTRICITY   = .00189408
INCLINATION    = 82.5692
RA_OF_ASC_NODE = 139.9307
ARG_OF_PERICENTER = 297.8937
MEAN_ANOMALY   = 130.0510

EPHEMERIS_TYPE = 0
CLASSIFICATION_TYPE = U
NORAD_CAT_ID   = 13553
ELEMENT_SET_NO = 999
REV_AT_EPOCH   = 32916
BSTAR          = .56648372E-4
MEAN_MOTION_DOT = .529E-5
MEAN_MOTION_DDOT = 0

CCSDS_OMM_VERS = 2.0
CREATION_DATE  = 
ORIGINATOR     = 

OBJECT_NAME    = SL-3 R/B
OBJECT_ID      = 1983-010B
CENTER_NAME    = EARTH
REF_FRAME      = TEME
TIME_SYSTEM    = UTC
MEAN_ELEMENT_THEORY = SGP/SGP4

EPOCH          = 2026-03-11T05:58:55.189632
MEAN_MOTION    = 15.46421618
ECCENTRICITY   = .0017858
INCLINATION    = 81.1060
RA_OF_ASC_NODE = 0.3352
ARG_OF_PERICENTER = 45.8312
MEAN_ANOMALY   = 314.4397

EPHEMERIS_TYPE = 0
CLASSIFICATION_TYPE = U
NORAD_CAT_ID   = 13819
ELEMENT_SET_NO = 999
REV_AT_EPOCH   = 35818
BSTAR          = .40142884E-3
MEAN_MOTION_DOT = .20038E-3
MEAN_MOTION_DDOT = 0

CCSDS_OMM_VERS = 2.0
CREATION_DATE  = 
ORIGINATOR     = 

OBJECT_NAME    = SL-3 R/B
OBJECT_ID      = 1983-075B
CENTER_NAME    = EARTH
REF_FRAME      = TEME
TIME_SYSTEM    = UTC
MEAN_ELEMENT_THEORY = SGP/SGP4

EPOCH          = 2026-03-11T05:57:18.933120
MEAN_MOTION    = 15.38460082
ECCENTRICITY   = .00202431
INCLINATION    = 97.6147
RA_OF_ASC_NODE = 74.8843
ARG_OF_PERICENTER = 219.9567
MEAN_ANOMALY   = 140.0189

EPHEMERIS_TYPE = 0
CLASSIFICATION_TYPE = U
NORAD_CAT_ID   = 14208
ELEMENT_SET_NO = 999
REV_AT_EPOCH   = 33039
BSTAR          = .33690494E-3
MEAN_MOTION_DOT = .12789E-3
MEAN_MOTION_DDOT = 0

CCSDS_OMM_VERS = 2.0
CREATION_DATE  = 
ORIGINATOR     = 

OBJECT_NAME    = COSMOS 1536
OBJECT_ID      = 1984-013A
CENTER_NAME    = EARTH
REF_FRAME      = TEME
TIME_SYSTEM    = UTC
MEAN_ELEMENT_THEORY = SGP/SGP4

EPOCH          = 2026-03-11T03:56:58.713216
MEAN_MOTION    = 15.23847163
ECCENTRICITY   = .0012497
INCLINATION    = 82.5431
RA_OF_ASC_NODE = 106.3843
ARG_OF_PERICENTER = 277.4551
MEAN_ANOMALY   = 82.5266

EPHEMERIS_TYPE = 0
CLASSIFICATION_TYPE = U
NORAD_CAT_ID   = 14699
ELEMENT_SET_NO = 999
REV_AT_EPOCH   = 27284
BSTAR          = .29824662E-3
MEAN_MOTION_DOT = .7236E-4
MEAN_MOTION_DDOT = 0

CCSDS_OMM_VERS = 2.0
CREATION_DATE  = 
ORIGINATOR     = 

OBJECT_NAME    = SL-14 R/B
OBJECT_ID      = 1984-027B
CENTER_NAME    = EARTH
REF_FRAME      = TEME
TIME_SYSTEM    = UTC
MEAN_ELEMENT_THEORY = SGP/SGP4

EPOCH          = 2026-03-10T23:20:28.749408
MEAN_MOTION    = 14.85978018
ECCENTRICITY   = .00172356
INCLINATION    = 82.5388
RA_OF_ASC_NODE = 243.8091
ARG_OF_PERICENTER = 333.4752
MEAN_ANOMALY   = 26.5580

EPHEMERIS_TYPE = 0
CLASSIFICATION_TYPE = U
NORAD_CAT_ID   = 14820
ELEMENT_SET_NO = 999
REV_AT_EPOCH   = 24782
BSTAR          = .68365744E-4
MEAN_MOTION_DOT = .622E-5
MEAN_MOTION_DDOT = 0

CCSDS_OMM_VERS = 2.0
CREATION_DATE  = 
ORIGINATOR     = 

OBJECT_NAME    = SL-8 R/B
OBJECT_ID      = 1985-006B
CENTER_NAME    = EARTH
REF_FRAME      = TEME
TIME_SYSTEM    = UTC
MEAN_ELEMENT_THEORY = SGP/SGP4

EPOCH          = 2026-03-10T23:59:19.220928
MEAN_MOTION    = 14.37784038
ECCENTRICITY   = .0018404
INCLINATION    = 74.0432
RA_OF_ASC_NODE = 258.7380
ARG_OF_PERICENTER = 176.2614
MEAN_ANOMALY   = 346.0057

EPHEMERIS_TYPE = 0
CLASSIFICATION_TYPE = U
NORAD_CAT_ID   = 15483
ELEMENT_SET_NO = 999
REV_AT_EPOCH   = 15421
BSTAR          = .13312E-3
MEAN_MOTION_DOT = .375E-5
MEAN_MOTION_DDOT = 0

CCSDS_OMM_VERS = 2.0
CREATION_DATE  = 
ORIGINATOR     = 

OBJECT_NAME    = SL-12 R/B(2)
OBJECT_ID      = 1985-042D
CENTER_NAME    = EARTH
REF_FRAME      = TEME
TIME_SYSTEM    = UTC
MEAN_ELEMENT_THEORY = SGP/SGP4

EPOCH          = 2026-03-11T07:37:59.976192
MEAN_MOTION    = 14.21982772
ECCENTRICITY   = .00331637
INCLINATION    = 71.1063
RA_OF_ASC_NODE = 84.2880
ARG_OF_PERICENTER = 125.4695
MEAN_ANOMALY   = 325.9831

EPHEMERIS_TYPE = 0
CLASSIFICATION_TYPE = U
NORAD_CAT_ID   = 15772
ELEMENT_SET_NO = 999
REV_AT_EPOCH   = 11462
BSTAR          = .65824441E-4
MEAN_MOTION_DOT = .99E-6
MEAN_MOTION_DDOT = 0

CCSDS_OMM_VERS = 2.0
CREATION_DATE  = 
ORIGINATOR     = 

OBJECT_NAME    = SL-14 R/B
OBJECT_ID      = 1985-069B
CENTER_NAME    = EARTH
REF_FRAME      = TEME
TIME_SYSTEM    = UTC
MEAN_ELEMENT_THEORY = SGP/SGP4

EPOCH          = 2026-03-11T07:02:41.386848
MEAN_MOTION    = 14.86435312
ECCENTRICITY   = .00186232
INCLINATION    = 82.5288
RA_OF_ASC_NODE = 23.4249
ARG_OF_PERICENTER = 182.3510
MEAN_ANOMALY   = 177.7622

EPHEMERIS_TYPE = 0
CLASSIFICATION_TYPE = U
NORAD_CAT_ID   = 15945
ELEMENT_SET_NO = 999
REV_AT_EPOCH   = 17307
BSTAR          = .72940344E-4
MEAN_MOTION_DOT = .67E-5
MEAN_MOTION_DDOT = 0

CCSDS_OMM_VERS = 2.0
CREATION_DATE  = 
ORIGINATOR     = 

OBJECT_NAME    = SL-16 R/B
OBJECT_ID      = 1985-097B
CENTER_NAME    = EARTH
REF_FRAME      = TEME
TIME_SYSTEM    = UTC
MEAN_ELEMENT_THEORY = SGP/SGP4

EPOCH          = 2026-03-11T07:54:43.348032
MEAN_MOTION    = 14.16598456
ECCENTRICITY   = .0009879
INCLINATION    = 71.0025
RA_OF_ASC_NODE = 137.1021
ARG_OF_PERICENTER = 257.8109
MEAN_ANOMALY   = 170.5433

EPHEMERIS_TYPE = 0
CLASSIFICATION_TYPE = U
NORAD_CAT_ID   = 16182
ELEMENT_SET_NO = 999
REV_AT_EPOCH   = 8746
BSTAR          = -.65454673E-4
MEAN_MOTION_DOT = -.179E-5
MEAN_MOTION_DDOT = 0

CCSDS_OMM_VERS = 2.0
CREATION_DATE  = 
ORIGINATOR     = 

OBJECT_NAME    = SL-14 R/B
OBJECT_ID      = 1986-006B
CENTER_NAME    = EARTH
REF_FRAME      = TEME
TIME_SYSTEM    = UTC
MEAN_ELEMENT_THEORY = SGP/SGP4

EPOCH          = 2026-03-10T22:24:30.270816
MEAN_MOTION    = 14.86816820
ECCENTRICITY   = .0075057
INCLINATION    = 82.5235
RA_OF_ASC_NODE = 258.5660
ARG_OF_PERICENTER = 268.5796
MEAN_ANOMALY   = 90.6822

EPHEMERIS_TYPE = 0
CLASSIFICATION_TYPE = U
NORAD_CAT_ID   = 16496
ELEMENT_SET_NO = 999
REV_AT_EPOCH   = 14939
BSTAR          = .82347E-4
MEAN_MOTION_DOT = .798E-5
MEAN_MOTION_DDOT = 0

CCSDS_OMM_VERS = 2.0
CREATION_DATE  = 
ORIGINATOR     = 

OBJECT_NAME    = COSMOS 1743
OBJECT_ID      = 1986-034A
CENTER_NAME    = EARTH
REF_FRAME      = TEME
TIME_SYSTEM    = UTC
MEAN_ELEMENT_THEORY = SGP/SGP4

EPOCH          = 2026-03-11T01:18:30.401856
MEAN_MOTION    = 15.58655444
ECCENTRICITY   = .00015161
INCLINATION    = 82.5297
RA_OF_ASC_NODE = 72.3984
ARG_OF_PERICENTER = 279.1264
MEAN_ANOMALY   = 80.9820

EPHEMERIS_TYPE = 0
CLASSIFICATION_TYPE = U
NORAD_CAT_ID   = 16719
ELEMENT_SET_NO = 999
REV_AT_EPOCH   = 18046
BSTAR          = .49528831E-3
MEAN_MOTION_DOT = .38159E-3
MEAN_MOTION_DDOT = 0

