SL-3 R/B                
1 13403U 82079B   26070.30744463  .00007779  00000+0  30953-3 0  9995
2 13403  81.1478 191.1672 0025101 159.3912 200.8340 15.24828669377946
SL-14 R/B               
1 13553U 82092B   26070.26015911  .00000529  00000+0  56648-4 0  9996
2 13553  82.5692 139.9307 0018940 297.8937 130.0510 14.86668036329169
SL-3 R/B                
1 13819U 83010B   26070.24924988  .00020038  00000+0  40143-3 0  9992
2 13819  81.1060   0.3352 0017858  45.8312 314.4397 15.46421618358189
SL-3 R/B                
1 14208U 83075B   26070.24813580  .00012789  00000+0  33690-3 0  9994
2 14208  97.6147  74.8843 0020243 219.9567 140.0189 15.38460082330393
COSMOS 1536             
1 14699U 84013A   26070.16456844  .00007236  00000+0  29825-3 0  9994
2 14699  82.5431 106.3843 0012497 277.4551  82.5266 15.23847163272845
SL-14 R/B               
1 14820U 84027B   26069.97255497  .00000622  00000+0  68366-4 0  9999
2 14820  82.5388 243.8091 0017235 333.4752  26.5580 14.85978018247823
SL-8 R/B                
1 15483U 85006B   26069.99952802  .00000375  00000+0  13312-3 0  9994
2 15483  74.0432 258.7380 0018404 176.2614 346.0057 14.37784038154213
SL-12 R/B(2)            
1 15772U 85042D   26070.31805528  .00000099  00000+0  65824-4 0  9994
2 15772  71.1063  84.2880 0033163 125.4695 325.9831 14.21982772114628
SL-14 R/B               
1 15945U 85069B   26070.29353457  .00000670  00000+0  72940-4 0  9993
2 15945  82.5288  23.4249 0018623 182.3510 177.7622 14.86435312173070
SL-16 R/B               
1 16182U 85097B   26070.32966838 -.00000179  00000+0 -65455-4 0  9994
2 16182  71.0025 137.1021 0009879 257.8109 170.5433 14.16598456 87462
SL-14 R/B               
1 16496U 86006B   26069.93368369  .00000798  00000+0  82347-4 0  9997
2 16496  82.5235 258.5660 0075057 268.5796  90.6822 14.86816820149399
COSMOS 1743             
1 16719U 86034A   26070.05451854  .00038159  00000+0  49529-3 0  9999
2 16719  82.5297  72.3984 0001516 279.1264  80.9820 15.58655444180469
